ISS (ZARYA)             
1 25544U 98067A   25302.61851704  .00015001  00000+0  27421-3 0  9999
2 25544  51.6346   0.9133 0004811 353.9136   6.1794 15.49585556536012
CSS (TIANHE)            
1 48274U 21035A   25303.03912859  .00041478  00000+0  50010-3 0  9998
2 48274  41.4666 282.1411 0007097 291.0843  68.9237 15.59974083257205
ISS (NAUKA)             
1 49044U 21066A   25302.61851704  .00015001  00000+0  27421-3 0  9995
2 49044  51.6346   0.9133 0004811 353.9136   6.1794 15.49585556230441
FREGAT DEB              
1 49271U 11037PF  25302.27346944  .00001670  00000+0  36545-2 0  9994
2 49271  51.6268 330.9120 0892511 127.8837 240.6193 12.33757355196443
CSS (WENTIAN)           
1 53239U 22085A   25302.20706547  .00041109  00000+0  47775-3 0  9999
2 53239  41.4665 287.2021 0010603 303.7055  56.2773 15.60898372173847
CSS (MENGTIAN)          
1 54216U 22143A   25302.20706547  .00041109  00000+0  47775-3 0  9990
2 54216  41.4665 287.2021 0010603 303.7055  56.2773 15.60898372158644
SOYUZ-MS 27             
1 63520U 25072A   25302.61851704  .00015001  00000+0  27421-3 0  9991
2 63520  51.6346   0.9133 0004811 353.9136   6.1794 15.49585556 20207
SHENZHOU-20 (SZ-20)     
1 63632U 25082A   25302.20706547  .00041109  00000+0  47775-3 0  9997
2 63632  41.4665 287.2021 0010603 303.7055  56.2773 15.60898372255307
PROGRESS-MS 31          
1 64751U 25146A   25302.61851704  .00015001  00000+0  27421-3 0  9990
2 64751  51.6346   0.9133 0004811 353.9136   6.1794 15.49585556  6758
TIANZHOU-9              
1 64786U 25149A   25302.20706547  .00041109  00000+0  47775-3 0  9992
2 64786  41.4665 287.2021 0010603 303.7055  56.2773 15.60898372255308
CREW DRAGON 11          
1 65077U 25166A   25302.61851704  .00015001  00000+0  27421-3 0  9994
2 65077  51.6346   0.9133 0004811 353.9136   6.1794 15.49585556  2149
DRAGON CRS-33           
1 65304U 25186A   25302.61851704  .00015001  00000+0  27421-3 0  9999
2 65304  51.6346   0.9133 0004811 353.9136   6.1794 15.49585556   117
