CCSDS_OMM_VERS = 2.0
CREATION_DATE  = 
ORIGINATOR     = 

OBJECT_NAME    = ISS (ZARYA)
OBJECT_ID      = 1998-067A
CENTER_NAME    = EARTH
REF_FRAME      = TEME
TIME_SYSTEM    = UTC
MEAN_ELEMENT_THEORY = SGP/SGP4

EPOCH          = 2025-10-29T14:50:39.872256
MEAN_MOTION    = 15.49585556
ECCENTRICITY   = .00048115
INCLINATION    = 51.6346
RA_OF_ASC_NODE = 0.9133
ARG_OF_PERICENTER = 353.9136
MEAN_ANOMALY   = 6.1794

EPHEMERIS_TYPE = 0
CLASSIFICATION_TYPE = U
NORAD_CAT_ID   = 25544
ELEMENT_SET_NO = 999
REV_AT_EPOCH   = 53601
BSTAR          = .27420557E-3
MEAN_MOTION_DOT = .15001E-3
MEAN_MOTION_DDOT = 0

CCSDS_OMM_VERS = 2.0
CREATION_DATE  = 
ORIGINATOR     = 

OBJECT_NAME    = CSS (TIANHE)
OBJECT_ID      = 2021-035A
CENTER_NAME    = EARTH
REF_FRAME      = TEME
TIME_SYSTEM    = UTC
MEAN_ELEMENT_THEORY = SGP/SGP4

EPOCH          = 2025-10-30T00:56:20.710176
MEAN_MOTION    = 15.59974083
ECCENTRICITY   = .0007097
INCLINATION    = 41.4666
RA_OF_ASC_NODE = 282.1411
ARG_OF_PERICENTER = 291.0843
MEAN_ANOMALY   = 68.9237

EPHEMERIS_TYPE = 0
CLASSIFICATION_TYPE = U
NORAD_CAT_ID   = 48274
ELEMENT_SET_NO = 999
REV_AT_EPOCH   = 25720
BSTAR          = .5001E-3
MEAN_MOTION_DOT = .41478E-3
MEAN_MOTION_DDOT = 0

CCSDS_OMM_VERS = 2.0
CREATION_DATE  = 
ORIGINATOR     = 

OBJECT_NAME    = ISS (NAUKA)
OBJECT_ID      = 2021-066A
CENTER_NAME    = EARTH
REF_FRAME      = TEME
TIME_SYSTEM    = UTC
MEAN_ELEMENT_THEORY = SGP/SGP4

EPOCH          = 2025-10-29T14:50:39.872256
MEAN_MOTION    = 15.49585556
ECCENTRICITY   = .00048115
INCLINATION    = 51.6346
RA_OF_ASC_NODE = 0.9133
ARG_OF_PERICENTER = 353.9136
MEAN_ANOMALY   = 6.1794

EPHEMERIS_TYPE = 0
CLASSIFICATION_TYPE = U
NORAD_CAT_ID   = 49044
ELEMENT_SET_NO = 999
REV_AT_EPOCH   = 23044
BSTAR          = .27420557E-3
MEAN_MOTION_DOT = .15001E-3
MEAN_MOTION_DDOT = 0

CCSDS_OMM_VERS = 2.0
CREATION_DATE  = 
ORIGINATOR     = 

OBJECT_NAME    = FREGAT DEB
OBJECT_ID      = 2011-037PF
CENTER_NAME    = EARTH
REF_FRAME      = TEME
TIME_SYSTEM    = UTC
MEAN_ELEMENT_THEORY = SGP/SGP4

EPOCH          = 2025-10-29T06:33:47.759616
MEAN_MOTION    = 12.33757355
ECCENTRICITY   = .08925115
INCLINATION    = 51.6268
RA_OF_ASC_NODE = 330.9120
ARG_OF_PERICENTER = 127.8837
MEAN_ANOMALY   = 240.6193

EPHEMERIS_TYPE = 0
CLASSIFICATION_TYPE = U
NORAD_CAT_ID   = 49271
ELEMENT_SET_NO = 999
REV_AT_EPOCH   = 19644
BSTAR          = .36544807E-2
MEAN_MOTION_DOT = .167E-4
MEAN_MOTION_DDOT = 0

CCSDS_OMM_VERS = 2.0
CREATION_DATE  = 
ORIGINATOR     = 

OBJECT_NAME    = CSS (WENTIAN)
OBJECT_ID      = 2022-085A
CENTER_NAME    = EARTH
REF_FRAME      = TEME
TIME_SYSTEM    = UTC
MEAN_ELEMENT_THEORY = SGP/SGP4

EPOCH          = 2025-10-29T04:58:10.456608
MEAN_MOTION    = 15.60898372
ECCENTRICITY   = .00106035
INCLINATION    = 41.4665
RA_OF_ASC_NODE = 287.2021
ARG_OF_PERICENTER = 303.7055
MEAN_ANOMALY   = 56.2773

EPHEMERIS_TYPE = 0
CLASSIFICATION_TYPE = U
NORAD_CAT_ID   = 53239
ELEMENT_SET_NO = 999
REV_AT_EPOCH   = 17384
BSTAR          = .47775026E-3
MEAN_MOTION_DOT = .41109E-3
MEAN_MOTION_DDOT = 0

CCSDS_OMM_VERS = 2.0
CREATION_DATE  = 
ORIGINATOR     = 

OBJECT_NAME    = CSS (MENGTIAN)
OBJECT_ID      = 2022-143A
CENTER_NAME    = EARTH
REF_FRAME      = TEME
TIME_SYSTEM    = UTC
MEAN_ELEMENT_THEORY = SGP/SGP4

EPOCH          = 2025-10-29T04:58:10.456608
MEAN_MOTION    = 15.60898372
ECCENTRICITY   = .00106035
INCLINATION    = 41.4665
RA_OF_ASC_NODE = 287.2021
ARG_OF_PERICENTER = 303.7055
MEAN_ANOMALY   = 56.2773

EPHEMERIS_TYPE = 0
CLASSIFICATION_TYPE = U
NORAD_CAT_ID   = 54216
ELEMENT_SET_NO = 999
REV_AT_EPOCH   = 15864
BSTAR          = .47775026E-3
MEAN_MOTION_DOT = .41109E-3
MEAN_MOTION_DDOT = 0

CCSDS_OMM_VERS = 2.0
CREATION_DATE  = 
ORIGINATOR     = 

OBJECT_NAME    = SOYUZ-MS 27
OBJECT_ID      = 2025-072A
CENTER_NAME    = EARTH
REF_FRAME      = TEME
TIME_SYSTEM    = UTC
MEAN_ELEMENT_THEORY = SGP/SGP4

EPOCH          = 2025-10-29T14:50:39.872256
MEAN_MOTION    = 15.49585556
ECCENTRICITY   = .00048115
INCLINATION    = 51.6346
RA_OF_ASC_NODE = 0.9133
ARG_OF_PERICENTER = 353.9136
MEAN_ANOMALY   = 6.1794

EPHEMERIS_TYPE = 0
CLASSIFICATION_TYPE = U
NORAD_CAT_ID   = 63520
ELEMENT_SET_NO = 999
REV_AT_EPOCH   = 2020
BSTAR          = .27420557E-3
MEAN_MOTION_DOT = .15001E-3
MEAN_MOTION_DDOT = 0

CCSDS_OMM_VERS = 2.0
CREATION_DATE  = 
ORIGINATOR     = 

OBJECT_NAME    = SHENZHOU-20 (SZ-20)
OBJECT_ID      = 2025-082A
CENTER_NAME    = EARTH
REF_FRAME      = TEME
TIME_SYSTEM    = UTC
MEAN_ELEMENT_THEORY = SGP/SGP4

EPOCH          = 2025-10-29T04:58:10.456608
MEAN_MOTION    = 15.60898372
ECCENTRICITY   = .00106035
INCLINATION    = 41.4665
RA_OF_ASC_NODE = 287.2021
ARG_OF_PERICENTER = 303.7055
MEAN_ANOMALY   = 56.2773

EPHEMERIS_TYPE = 0
CLASSIFICATION_TYPE = U
NORAD_CAT_ID   = 63632
ELEMENT_SET_NO = 999
REV_AT_EPOCH   = 25530
BSTAR          = .47775026E-3
MEAN_MOTION_DOT = .41109E-3
MEAN_MOTION_DDOT = 0

CCSDS_OMM_VERS = 2.0
CREATION_DATE  = 
ORIGINATOR     = 

OBJECT_NAME    = PROGRESS-MS 31
OBJECT_ID      = 2025-146A
CENTER_NAME    = EARTH
REF_FRAME      = TEME
TIME_SYSTEM    = UTC
MEAN_ELEMENT_THEORY = SGP/SGP4

EPOCH          = 2025-10-29T14:50:39.872256
MEAN_MOTION    = 15.49585556
ECCENTRICITY   = .00048115
INCLINATION    = 51.6346
RA_OF_ASC_NODE = 0.9133
ARG_OF_PERICENTER = 353.9136
MEAN_ANOMALY   = 6.1794

EPHEMERIS_TYPE = 0
CLASSIFICATION_TYPE = U
NORAD_CAT_ID   = 64751
ELEMENT_SET_NO = 999
REV_AT_EPOCH   = 675
BSTAR          = .27420557E-3
MEAN_MOTION_DOT = .15001E-3
MEAN_MOTION_DDOT = 0

CCSDS_OMM_VERS = 2.0
CREATION_DATE  = 
ORIGINATOR     = 

OBJECT_NAME    = TIANZHOU-9
OBJECT_ID      = 2025-149A
CENTER_NAME    = EARTH
REF_FRAME      = TEME
TIME_SYSTEM    = UTC
MEAN_ELEMENT_THEORY = SGP/SGP4

EPOCH          = 2025-10-29T04:58:10.456608
MEAN_MOTION    = 15.60898372
ECCENTRICITY   = .00106035
INCLINATION    = 41.4665
RA_OF_ASC_NODE = 287.2021
ARG_OF_PERICENTER = 303.7055
MEAN_ANOMALY   = 56.2773

EPHEMERIS_TYPE = 0
CLASSIFICATION_TYPE = U
NORAD_CAT_ID   = 64786
ELEMENT_SET_NO = 999
REV_AT_EPOCH   = 25530
BSTAR          = .47775026E-3
MEAN_MOTION_DOT = .41109E-3
MEAN_MOTION_DDOT = 0

CCSDS_OMM_VERS = 2.0
CREATION_DATE  = 
ORIGINATOR     = 

OBJECT_NAME    = CREW DRAGON 11
OBJECT_ID      = 2025-166A
CENTER_NAME    = EARTH
REF_FRAME      = TEME
TIME_SYSTEM    = UTC
MEAN_ELEMENT_THEORY = SGP/SGP4

EPOCH          = 2025-10-29T14:50:39.872256
MEAN_MOTION    = 15.49585556
ECCENTRICITY   = .00048115
INCLINATION    = 51.6346
RA_OF_ASC_NODE = 0.9133
ARG_OF_PERICENTER = 353.9136
MEAN_ANOMALY   = 6.1794

EPHEMERIS_TYPE = 0
CLASSIFICATION_TYPE = U
NORAD_CAT_ID   = 65077
ELEMENT_SET_NO = 999
REV_AT_EPOCH   = 214
BSTAR          = .27420557E-3
MEAN_MOTION_DOT = .15001E-3
MEAN_MOTION_DDOT = 0

CCSDS_OMM_VERS = 2.0
CREATION_DATE  = 
ORIGINATOR     = 

OBJECT_NAME    = DRAGON CRS-33
OBJECT_ID      = 2025-186A
CENTER_NAME    = EARTH
REF_FRAME      = TEME
TIME_SYSTEM    = UTC
MEAN_ELEMENT_THEORY = SGP/SGP4

EPOCH          = 2025-10-29T14:50:39.872256
MEAN_MOTION    = 15.49585556
ECCENTRICITY   = .00048115
INCLINATION    = 51.6346
RA_OF_ASC_NODE = 0.9133
ARG_OF_PERICENTER = 353.9136
MEAN_ANOMALY   = 6.1794

EPHEMERIS_TYPE = 0
CLASSIFICATION_TYPE = U
NORAD_CAT_ID   = 65304
ELEMENT_SET_NO = 999
REV_AT_EPOCH   = 11
BSTAR          = .27420557E-3
MEAN_MOTION_DOT = .15001E-3
MEAN_MOTION_DDOT = 0

